{
  "norad_id": 46572,
  "name": "STARLINK-1531",
  "history": [
    {
      "epoch": "2026-03-28T21:12:12.468960Z",
      "apogee_km": 369.6791040762455,
      "perigee_km": 362.4481070709626,
      "latitude_deg": 3.0213951198736096e-05,
      "longitude_deg": -99.05196263248904,
      "height_km": 363.65346344400456,
      "semi_major_axis_km": 6744.200605573604,
      "eccentricity": 0.00053609,
      "inclination_deg": 53.0549,
      "raan_deg": 45.2975,
      "arg_perigee_deg": 336.4817,
      "mean_anomaly_deg": 23.5953,
      "mean_motion_rev_day": 15.67498169
    },
    {
      "epoch": "2026-03-29T03:19:27.143904Z",
      "apogee_km": 369.51559309384993,
      "perigee_km": 362.26980758380705,
      "latitude_deg": -4.33093090638817e-05,
      "longitude_deg": 167.62776682489482,
      "height_km": 363.4646409058246,
      "semi_major_axis_km": 6744.029700338829,
      "eccentricity": 0.0005372,
      "inclination_deg": 53.055,
      "raan_deg": 44.0398,
      "arg_perigee_deg": 336.9275,
      "mean_anomaly_deg": 23.1498,
      "mean_motion_rev_day": 15.67557754
    },
    {
      "epoch": "2026-03-30T03:48:15.749568Z",
      "apogee_km": 368.72555115037176,
      "perigee_km": 361.4563514188867,
      "latitude_deg": 4.970203687532567e-05,
      "longitude_deg": 154.39354861829707,
      "height_km": 362.6457430769128,
      "semi_major_axis_km": 6743.227951284629,
      "eccentricity": 0.000539,
      "inclination_deg": 53.054,
      "raan_deg": 39.0134,
      "arg_perigee_deg": 337.1844,
      "mean_anomaly_deg": 22.8932,
      "mean_motion_rev_day": 15.67837329
    },
    {
      "epoch": "2026-03-31T20:00:01.999008Z",
      "apogee_km": 367.12884052261234,
      "perigee_km": 360.45972209914,
      "latitude_deg": 52.02579377282979,
      "longitude_deg": 8.185051363783446,
      "height_km": 371.6396841880354,
      "semi_major_axis_km": 6741.931281310876,
      "eccentricity": 0.0004946,
      "inclination_deg": 53.0539,
      "raan_deg": 30.7564,
      "arg_perigee_deg": 341.6221,
      "mean_anomaly_deg": 118.5017,
      "mean_motion_rev_day": 15.68289662
    },
    {
      "epoch": "2026-04-01T20:00:01.999008Z",
      "apogee_km": 366.27810882409995,
      "perigee_km": 359.84969964182346,
      "latitude_deg": -8.375952205173158,
      "longitude_deg": -110.69626559085928,
      "height_km": 362.24120319679656,
      "semi_major_axis_km": 6741.200904232962,
      "eccentricity": 0.0004768,
      "inclination_deg": 53.0536,
      "raan_deg": 25.8247,
      "arg_perigee_deg": 342.6727,
      "mean_anomaly_deg": 6.9834,
      "mean_motion_rev_day": 15.68544544
    }
  ]
}